[
    {
        "CCSDS_OMM_VERS": "3.0",
        "COMMENT": "GENERATED VIA SPACE-TRACK.ORG API",
        "CREATION_DATE": "2025-04-14T03:05:54",
        "ORIGINATOR": "18 SPCS",
        "OBJECT_NAME": "BEIDOU 2 G8",
        "OBJECT_ID": "2019-027A",
        "CENTER_NAME": "EARTH",
        "REF_FRAME": "TEME",
        "TIME_SYSTEM": "UTC",
        "MEAN_ELEMENT_THEORY": "SGP4",
        "EPOCH": "2025-04-13T22:06:01.721664",
        "MEAN_MOTION": "1.00275951",
        "ECCENTRICITY": "0.00054580",
        "INCLINATION": "1.5290",
        "RA_OF_ASC_NODE": "74.7726",
        "ARG_OF_PERICENTER": "255.5283",
        "MEAN_ANOMALY": "348.0277",
        "EPHEMERIS_TYPE": "0",
        "CLASSIFICATION_TYPE": "U",
        "NORAD_CAT_ID": "44231",
        "ELEMENT_SET_NO": "999",
        "REV_AT_EPOCH": "2177",
        "BSTAR": "0.00000000000000",
        "MEAN_MOTION_DOT": "-0.00000239",
        "MEAN_MOTION_DDOT": "0.0000000000000",
        "SEMIMAJOR_AXIS": "42163.564",
        "PERIOD": "1436.037",
        "APOAPSIS": "35808.442",
        "PERIAPSIS": "35762.416",
        "OBJECT_TYPE": "PAYLOAD",
        "RCS_SIZE": "LARGE",
        "COUNTRY_CODE": "PRC",
        "LAUNCH_DATE": "2019-05-17",
        "SITE": "XSC",
        "DECAY_DATE": null,
        "FILE": "4701263",
        "GP_ID": "285539633",
        "TLE_LINE0": "0 BEIDOU 2 G8",
        "TLE_LINE1": "1 44231U 19027A   25103.92085326 -.00000239  00000-0  00000-0 0  9994",
        "TLE_LINE2": "2 44231   1.5290  74.7726 0005458 255.5283 348.0277  1.00275951 21776"
    }
]